{
  "type": "FeatureCollection",
  "features": [
    {
      "type": "Feature",
      "properties": {
        "norad_id": 44333,
        "name": "AT&T T-16",
        "group": "intelsat",
        "lat": 0.016205085322449984,
        "lon": 77.53074612846537,
        "alt_km": 35785.04210175655,
        "timestamp": "2025-12-27T05:29:38.862195+00:00",
        "meta_object_name": "AT&T T-16",
        "meta_object_id": "2019-034A",
        "meta_epoch": "2025-12-26T09:24:01.437984",
        "meta_mean_motion": 1.00280007,
        "meta_eccentricity": 9.59e-05,
        "meta_inclination": 0.0209,
        "meta_ra_of_asc_node": 69.0211,
        "meta_arg_of_pericenter": 116.5883,
        "meta_mean_anomaly": 309.683,
        "meta_ephemeris_type": 0,
        "meta_classification_type": "U",
        "meta_norad_cat_id": 44333,
        "meta_element_set_no": 999,
        "meta_rev_at_epoch": 2390,
        "meta_bstar": 0,
        "meta_mean_motion_dot": -9.5e-07,
        "meta_mean_motion_ddot": 0,
        "tle_line1": "1 44333U 19034A   25360.39168331 -.00000095  00000+0  00000+0 0  9997",
        "tle_line2": "2 44333   0.0209  69.0211 0000959 116.5883 309.6830  1.00280007 23905"
      },
      "geometry": {
        "type": "Point",
        "coordinates": [
          77.53074612846537,
          0.016205085322449984
        ]
      }
    },
    {
      "type": "Feature",
      "properties": {
        "norad_id": 44476,
        "name": "INTELSAT 39 (IS-39)",
        "group": "intelsat",
        "lat": -0.027943203587377386,
        "lon": -119.67617083876787,
        "alt_km": 35785.88169773263,
        "timestamp": "2025-12-27T05:29:38.862206+00:00",
        "meta_object_name": "INTELSAT 39 (IS-39)",
        "meta_object_id": "2019-049B",
        "meta_epoch": "2025-12-26T21:07:11.165376",
        "meta_mean_motion": 1.00270929,
        "meta_eccentricity": 0.00010289,
        "meta_inclination": 0.0136,
        "meta_ra_of_asc_node": 353.7552,
        "meta_arg_of_pericenter": 162.3551,
        "meta_mean_anomaly": 318.2509,
        "meta_ephemeris_type": 0,
        "meta_classification_type": "U",
        "meta_norad_cat_id": 44476,
        "meta_element_set_no": 999,
        "meta_rev_at_epoch": 2340,
        "meta_bstar": 0,
        "meta_mean_motion_dot": 5.6e-07,
        "meta_mean_motion_ddot": 0,
        "tle_line1": "1 44476U 19049B   25360.87999034  .00000056  00000+0  00000+0 0  9992",
        "tle_line2": "2 44476   0.0136 353.7552 0001028 162.3551 318.2509  1.00270929 23408"
      },
      "geometry": {
        "type": "Point",
        "coordinates": [
          -119.67617083876787,
          -0.027943203587377386
        ]
      }
    },
    {
      "type": "Feature",
      "properties": {
        "norad_id": 46114,
        "name": "GALAXY 30 (G-30)",
        "group": "intelsat",
        "lat": 0.01719126791026894,
        "lon": 53.3824472628519,
        "alt_km": 35793.68376857685,
        "timestamp": "2025-12-27T05:29:38.862218+00:00",
        "meta_object_name": "GALAXY 30 (G-30)",
        "meta_object_id": "2020-056C",
        "meta_epoch": "2025-12-26T13:07:40.743840",
        "meta_mean_motion": 1.0027099,
        "meta_eccentricity": 0.0002392,
        "meta_inclination": 0.0083,
        "meta_ra_of_asc_node": 313.2552,
        "meta_arg_of_pericenter": 322.9444,
        "meta_mean_anomaly": 251.0088,
        "meta_ephemeris_type": 0,
        "meta_classification_type": "U",
        "meta_norad_cat_id": 46114,
        "meta_element_set_no": 999,
        "meta_rev_at_epoch": 1956,
        "meta_bstar": 0,
        "meta_mean_motion_dot": 5.9e-07,
        "meta_mean_motion_ddot": 0,
        "tle_line1": "1 46114U 20056C   25360.54699935  .00000059  00000+0  00000+0 0  9997",
        "tle_line2": "2 46114   0.0083 313.2552 0002392 322.9444 251.0088  1.00270990 19567"
      },
      "geometry": {
        "type": "Point",
        "coordinates": [
          53.3824472628519,
          0.01719126791026894
        ]
      }
    },
    {
      "type": "Feature",
      "properties": {
        "norad_id": 54026,
        "name": "GALAXY 33 (G-33)",
        "group": "intelsat",
        "lat": 0.017130727671831967,
        "lon": 45.39641687534097,
        "alt_km": 35791.01519791282,
        "timestamp": "2025-12-27T05:29:38.862230+00:00",
        "meta_object_name": "GALAXY 33 (G-33)",
        "meta_object_id": "2022-128A",
        "meta_epoch": "2025-12-24T04:31:51.326400",
        "meta_mean_motion": 1.00272122,
        "meta_eccentricity": 0.0001643,
        "meta_inclination": 0.0126,
        "meta_ra_of_asc_node": 315.9231,
        "meta_arg_of_pericenter": 309.5058,
        "meta_mean_anomaly": 122.5078,
        "meta_ephemeris_type": 0,
        "meta_classification_type": "U",
        "meta_norad_cat_id": 54026,
        "meta_element_set_no": 999,
        "meta_rev_at_epoch": 1198,
        "meta_bstar": 0,
        "meta_mean_motion_dot": 1e-06,
        "meta_mean_motion_ddot": 0,
        "tle_line1": "1 54026U 22128A   25358.18878850  .00000100  00000+0  00000+0 0  9999",
        "tle_line2": "2 54026   0.0126 315.9231 0001643 309.5058 122.5078  1.00272122 11987"
      },
      "geometry": {
        "type": "Point",
        "coordinates": [
          45.39641687534097,
          0.017130727671831967
        ]
      }
    },
    {
      "type": "Feature",
      "properties": {
        "norad_id": 54027,
        "name": "GALAXY 34 (G-34)",
        "group": "intelsat",
        "lat": 0.024257885528748097,
        "lon": 49.42267438008023,
        "alt_km": 35792.35702493929,
        "timestamp": "2025-12-27T05:29:38.862243+00:00",
        "meta_object_name": "GALAXY 34 (G-34)",
        "meta_object_id": "2022-128B",
        "meta_epoch": "2025-12-26T22:41:34.548864",
        "meta_mean_motion": 1.00270482,
        "meta_eccentricity": 0.00017753,
        "meta_inclination": 0.0231,
        "meta_ra_of_asc_node": 16.9319,
        "meta_arg_of_pericenter": 250.2607,
        "meta_mean_anomaly": 39.9289,
        "meta_ephemeris_type": 0,
        "meta_classification_type": "U",
        "meta_norad_cat_id": 54027,
        "meta_element_set_no": 999,
        "meta_rev_at_epoch": 1218,
        "meta_bstar": 0,
        "meta_mean_motion_dot": 0,
        "meta_mean_motion_ddot": 0,
        "tle_line1": "1 54027U 22128B   25360.94553876  .00000000  00000+0  00000+0 0  9994",
        "tle_line2": "2 54027   0.0231  16.9319 0001775 250.2607  39.9289  1.00270482 12183"
      },
      "geometry": {
        "type": "Point",
        "coordinates": [
          49.42267438008023,
          0.024257885528748097
        ]
      }
    },
    {
      "type": "Feature",
      "properties": {
        "norad_id": 54243,
        "name": "GALAXY 31 (G-31)",
        "group": "intelsat",
        "lat": 0.021372033265847863,
        "lon": 57.36817484686979,
        "alt_km": 35791.50921412831,
        "timestamp": "2025-12-27T05:29:38.862255+00:00",
        "meta_object_name": "GALAXY 31 (G-31)",
        "meta_object_id": "2022-153A",
        "meta_epoch": "2025-12-26T13:10:42.272832",
        "meta_mean_motion": 1.00270334,
        "meta_eccentricity": 0.0001795,
        "meta_inclination": 0.0091,
        "meta_ra_of_asc_node": 8.6381,
        "meta_arg_of_pericenter": 277.034,
        "meta_mean_anomaly": 246.2854,
        "meta_ephemeris_type": 0,
        "meta_classification_type": "U",
        "meta_norad_cat_id": 54243,
        "meta_element_set_no": 999,
        "meta_rev_at_epoch": 540,
        "meta_bstar": 0,
        "meta_mean_motion_dot": 0,
        "meta_mean_motion_ddot": 0,
        "tle_line1": "1 54243U 22153A   25360.54910038  .00000000  00000+0  00000+0 0  9995",
        "tle_line2": "2 54243   0.0091   8.6381 0001795 277.0340 246.2854  1.00270334  5401"
      },
      "geometry": {
        "type": "Point",
        "coordinates": [
          57.36817484686979,
          0.021372033265847863
        ]
      }
    },
    {
      "type": "Feature",
      "properties": {
        "norad_id": 54244,
        "name": "GALAXY 32 (G-32)",
        "group": "intelsat",
        "lat": 0.02821441732319137,
        "lon": 87.39170087113091,
        "alt_km": 35791.54419310503,
        "timestamp": "2025-12-27T05:29:38.862266+00:00",
        "meta_object_name": "GALAXY 32 (G-32)",
        "meta_object_id": "2022-153B",
        "meta_epoch": "2025-12-24T22:56:22.028928",
        "meta_mean_motion": 1.00272509,
        "meta_eccentricity": 0.0001992,
        "meta_inclination": 0.0091,
        "meta_ra_of_asc_node": 20.8495,
        "meta_arg_of_pericenter": 295.2988,
        "meta_mean_anomaly": 30.6679,
        "meta_ephemeris_type": 0,
        "meta_classification_type": "U",
        "meta_norad_cat_id": 54244,
        "meta_element_set_no": 999,
        "meta_rev_at_epoch": 1139,
        "meta_bstar": 0,
        "meta_mean_motion_dot": -1.53e-06,
        "meta_mean_motion_ddot": 0,
        "tle_line1": "1 54244U 22153B   25358.95581052 -.00000153  00000+0  00000+0 0  9998",
        "tle_line2": "2 54244   0.0091  20.8495 0001992 295.2988  30.6679  1.00272509 11394"
      },
      "geometry": {
        "type": "Point",
        "coordinates": [
          87.39170087113091,
          0.02821441732319137
        ]
      }
    }
  ]
}